COMMENT,ORIGINATOR,NORAD_CAT_ID,OBJECT_NAME,OBJECT_TYPE,CLASSIFICATION_TYPE,INTLDES,EPOCH,EPOCH_MICROSECONDS,MEAN_MOTION,ECCENTRICITY,INCLINATION,RA_OF_ASC_NODE,ARG_OF_PERICENTER,MEAN_ANOMALY,EPHEMERIS_TYPE,ELEMENT_SET_NO,REV_AT_EPOCH,BSTAR,MEAN_MOTION_DOT,MEAN_MOTION_DDOT,FILE,TLE_LINE0,TLE_LINE1,TLE_LINE2,OBJECT_ID,OBJECT_NUMBER,SEMIMAJOR_AXIS,PERIOD,APOGEE,PERIGEE,DECAYED,date
GENERATED VIA SPACETRACK.ORG API,18 SPCS,52181,SPACEBEE-131,PAYLOAD,U,22033AA,2023/1/26 4:06,715296,15.31124343,0.0007633,97.3626,109.5512,317.9684,42.0971,0,999,4564,0.0013704,0.00041338,0,3761951,0 SPACEBEE-131,1 52181U 22033AA  23026.17143189  .00041338  00000-0  13704-2 0  9990,2 52181  97.3626 109.5512 0007633 317.9684  42.0971 15.31124343 45641,2022-033AA,52181,6850.594,94.049,477.688,467.229,1,2023/2/16
GENERATED VIA SPACETRACK.ORG API,18 SPCS,52181,SPACEBEE-131,PAYLOAD,U,22033AA,2023/1/26 22:56,128544,15.31182167,0.0007577,97.3622,110.3296,315.2341,44.8288,0,999,4574,0.0012839,0.0003878,0,3762928,0 SPACEBEE-131,1 52181U 22033AA  23026.95566121  .00038780  00000-0  12839-2 0  9996,2 52181  97.3622 110.3296 0007577 315.2341  44.8288 15.31182167 45744,2022-033AA,52181,6850.421,94.045,477.477,467.095,1,2023/2/17
GENERATED VIA SPACETRACK.ORG API,18 SPCS,52181,SPACEBEE-131,PAYLOAD,U,22033AA,2023/1/26 22:56,128544,15.31182167,0.0007577,97.3622,110.3296,315.2341,44.8288,0,999,4576,0.0012839,0.0003878,0,3762956,0 SPACEBEE-131,1 52181U 22033AA  23026.95566121  .00038780  00000-0  12839-2 0  9996,2 52181  97.3622 110.3296 0007577 315.2341  44.8288 15.31182167 45766,2022-033AA,52181,6850.421,94.045,477.477,467.095,1,2023/2/18
GENERATED VIA SPACETRACK.ORG API,18 SPCS,52181,SPACEBEE-131,PAYLOAD,U,22033AA,2023/1/27 17:45,33600,15.31236464,0.000754,97.3622,111.1082,312.1414,47.9186,0,999,4588,0.0011195,0.00033839,0,3763218,0 SPACEBEE-131,1 52181U 22033AA  23027.73986150  .00033839  00000-0  11195-2 0  9995,2 52181  97.3622 111.1082 0007540 312.1414  47.9186 15.31236464 45889,2022-033AA,52181,6850.259,94.042,477.289,466.959,1,2023/2/19
GENERATED VIA SPACETRACK.ORG API,18 SPCS,52181,SPACEBEE-131,PAYLOAD,U,22033AA,2023/1/28 6:18,704256,15.31269736,0.0007603,97.3621,111.6273,309.7015,50.3555,0,999,4594,0.0011083,0.00033534,0,3763593,0 SPACEBEE-131,1 52181U 22033AA  23028.26264704  .00033534  00000-0  11083-2 0  9996,2 52181  97.3621 111.6273 0007603 309.7015  50.3555 15.31269736 45947,2022-033AA,52181,6850.16,94.04,477.233,466.817,1,2023/2/20
GENERATED VIA SPACETRACK.ORG API,18 SPCS,52181,SPACEBEE-131,PAYLOAD,U,22033AA,2023/1/28 18:51,354528,15.31302416,0.0007621,97.3622,112.1463,307.4097,52.645,0,999,4604,0.0010077,0.00030502,0,3764201,0 SPACEBEE-131,1 52181U 22033AA  23028.78542077  .00030502  00000-0  10077-2 0  9999,2 52181  97.3622 112.1463 0007621 307.4097  52.6450 15.31302416 46044,2022-033AA,52181,6850.062,94.038,477.148,466.707,1,2023/2/21
GENERATED VIA SPACETRACK.ORG API,18 SPCS,52181,SPACEBEE-131,PAYLOAD,U,22033AA,2023/1/29 18:22,307776,15.3135806,0.0007538,97.3624,113.1197,303.9807,56.0717,0,999,4617,0.00088858,0.00026921,0,3764982,0 SPACEBEE-131,1 52181U 22033AA  23029.76559384  .00026921  00000-0  88858-3 0  9990,2 52181  97.3624 113.1197 0007538 303.9807  56.0717 15.31358060 46172,2022-033AA,52181,6849.896,94.034,476.925,466.598,1,2023/2/22
GENERATED VIA SPACETRACK.ORG API,18 SPCS,52181,SPACEBEE-131,PAYLOAD,U,22033AA,2023/1/29 18:22,307776,15.3135806,0.0007538,97.3624,113.1197,303.9807,56.0717,0,999,4619,0.00088858,0.00026921,0,3765015,0 SPACEBEE-131,1 52181U 22033AA  23029.76559384  .00026921  00000-0  88858-3 0  9990,2 52181  97.3624 113.1197 0007538 303.9807  56.0717 15.31358060 46194,2022-033AA,52181,6849.896,94.034,476.925,466.598,1,2023/2/23
GENERATED VIA SPACETRACK.ORG API,18 SPCS,52181,SPACEBEE-131,PAYLOAD,U,22033AA,2023/1/30 5:21,868224,15.31381845,0.0007427,97.3625,113.5746,302.3256,57.7266,0,999,4626,0.0008343,0.00025284,0,3765576,0 SPACEBEE-131,1 52181U 22033AA  23030.22299616  .00025284  00000-0  83430-3 0  9994,2 52181  97.3625 113.5746 0007427 302.3256  57.7266 15.31381845 46269,2022-033AA,52181,6849.826,94.033,476.778,466.603,1,2023/2/24
GENERATED VIA SPACETRACK.ORG API,18 SPCS,52181,SPACEBEE-131,PAYLOAD,U,22033AA,2023/1/30 22:36,827264,15.31416542,0.0007406,97.3625,114.2888,299.6138,60.4365,0,999,4635,0.00079395,0.0002408,0,3765827,0 SPACEBEE-131,1 52181U 22033AA  23030.94175726  .00024080  00000-0  79395-3 0  9996,2 52181  97.3625 114.2888 0007406 299.6138  60.4365 15.31416542 46352,2022-033AA,52181,6849.722,94.031,476.66,466.514,1,2023/2/25
GENERATED VIA SPACETRACK.ORG API,18 SPCS,52181,SPACEBEE-131,PAYLOAD,U,22033AA,2023/1/31 12:42,534400,15.31451545,0.0007426,97.3627,114.8726,297.066,62.9824,0,999,4646,0.0009484,0.00028828,0,3766475,0 SPACEBEE-131,1 52181U 22033AA  23031.52982100  .00028828  00000-0  94840-3 0  9999,2 52181  97.3627 114.8726 0007426 297.0660  62.9824 15.31451545 46466,2022-033AA,52181,6849.618,94.028,476.569,466.396,1,2023/2/26
GENERATED VIA SPACETRACK.ORG API,18 SPCS,52181,SPACEBEE-131,PAYLOAD,U,22033AA,2023/2/1 4:23,312032,15.31491381,0.0007442,97.3628,115.5218,295.0825,64.9644,0,999,4654,0.00097882,0.00029796,0,3767161,0 SPACEBEE-131,1 52181U 22033AA  23032.18320963  .00029796  00000-0  97882-3 0  9999,2 52181  97.3628 115.5218 0007442 295.0825  64.9644 15.31491381 46543,2022-033AA,52181,6849.499,94.026,476.461,466.267,1,2023/2/27
GENERATED VIA SPACETRACK.ORG API,18 SPCS,52181,SPACEBEE-131,PAYLOAD,U,22033AA,2023/2/1 10:40,981408,15.31507605,0.0007407,97.3628,115.7812,293.8341,66.2123,0,999,4660,0.00096888,0.00029506,0,3767525,0 SPACEBEE-131,1 52181U 22033AA  23032.44455997  .00029506  00000-0  96888-3 0  9998,2 52181  97.3628 115.7812 0007407 293.8341  66.2123 15.31507605 46606,2022-033AA,52181,6849.451,94.025,476.389,466.242,1,2023/2/28
GENERATED VIA SPACETRACK.ORG API,18 SPCS,52181,SPACEBEE-131,PAYLOAD,U,22033AA,2023/2/1 23:12,689440,15.31536925,0.0007359,97.3629,116.3006,291.9347,68.1112,0,999,4668,0.00090609,0.00027607,0,3768366,0 SPACEBEE-131,1 52181U 22033AA  23032.96725335  .00027607  00000-0  90609-3 0  9996,2 52181  97.3629 116.3006 0007359 291.9347  68.1112 15.31536925 46684,2022-033AA,52181,6849.363,94.023,476.269,466.188,1,2023/3/1
GENERATED VIA SPACETRACK.ORG API,18 SPCS,52181,SPACEBEE-131,PAYLOAD,U,22033AA,2023/2/2 5:29,656384,15.31555539,0.0007369,97.3628,116.5602,290.9486,69.0967,0,999,4670,0.00095972,0.00029269,0,3769248,0 SPACEBEE-131,1 52181U 22033AA  23033.22859556  .00029269  00000-0  95972-3 0  9993,2 52181  97.3628 116.5602 0007369 290.9486  69.0967 15.31555539 46704,2022-033AA,52181,6849.308,94.022,476.22,466.125,1,2023/3/2
GENERATED VIA SPACETRACK.ORG API,18 SPCS,52181,SPACEBEE-131,PAYLOAD,U,22033AA,2023/2/3 5:00,366592,15.31617402,0.0007323,97.3627,117.534,286.7514,73.2924,0,999,4687,0.00095588,0.00029207,0,3770323,0 SPACEBEE-131,1 52181U 22033AA  23034.20860378  .00029207  00000-0  95588-3 0  9991,2 52181  97.3627 117.5340 0007323 286.7514  73.2924 15.31617402 46874,2022-033AA,52181,6849.123,94.018,476.004,465.973,1,2023/3/3
GENERATED VIA SPACETRACK.ORG API,18 SPCS,52181,SPACEBEE-131,PAYLOAD,U,22033AA,2023/2/3 15:58,193888,15.31644514,0.0007316,97.3627,117.9882,284.8288,75.2143,0,999,4692,0.00092984,0.00028431,0,3770723,0 SPACEBEE-131,1 52181U 22033AA  23034.66592817  .00028431  00000-0  92984-3 0  9996,2 52181  97.3627 117.9882 0007316 284.8288  75.2143 15.31644514 46923,2022-033AA,52181,6849.042,94.017,475.918,465.897,1,2023/3/4
GENERATED VIA SPACETRACK.ORG API,18 SPCS,52181,SPACEBEE-131,PAYLOAD,U,22033AA,2023/2/3 15:58,193888,15.31644514,0.0007316,97.3627,117.9882,284.8288,75.2143,0,999,4694,0.00092984,0.00028431,0,3770748,0 SPACEBEE-131,1 52181U 22033AA  23034.66592817  .00028431  00000-0  92984-3 0  9996,2 52181  97.3627 117.9882 0007316 284.8288  75.2143 15.31644514 46945,2022-033AA,52181,6849.042,94.017,475.918,465.897,1,2023/3/5
GENERATED VIA SPACETRACK.ORG API,18 SPCS,52181,SPACEBEE-131,PAYLOAD,U,22033AA,2023/2/4 4:31,713248,15.31684139,0.0007355,97.3625,118.5074,282.852,77.1899,0,999,4700,0.0011706,0.00035891,0,3771931,0 SPACEBEE-131,1 52181U 22033AA  23035.18857307  .00035891  00000-0  11706-2 0  9992,2 52181  97.3625 118.5074 0007355 282.8520  77.1899 15.31684139 47007,2022-033AA,52181,6848.924,94.014,475.827,465.752,1,2023/3/6
GENERATED VIA SPACETRACK.ORG API,18 SPCS,52181,SPACEBEE-131,PAYLOAD,U,22033AA,2023/2/4 4:31,713248,15.31684139,0.0007355,97.3625,118.5074,282.852,77.1899,0,999,4702,0.0011706,0.00035891,0,3771952,0 SPACEBEE-131,1 52181U 22033AA  23035.18857307  .00035891  00000-0  11706-2 0  9992,2 52181  97.3625 118.5074 0007355 282.8520  77.1899 15.31684139 47029,2022-033AA,52181,6848.924,94.014,475.827,465.752,1,2023/3/7
GENERATED VIA SPACETRACK.ORG API,18 SPCS,52181,SPACEBEE-131,PAYLOAD,U,22033AA,2023/2/4 18:38,554880,15.31721719,0.0007345,97.3623,119.0917,280.0919,79.9494,0,999,4711,0.0010408,0.00031924,0,3772514,0 SPACEBEE-131,1 52181U 22033AA  23035.77653420  .00031924  00000-0  10408-2 0  9998,2 52181  97.3623 119.0917 0007345 280.0919  79.9494 15.31721719 47117,2022-033AA,52181,6848.812,94.012,475.708,465.647,1,2023/3/8
GENERATED VIA SPACETRACK.ORG API,18 SPCS,52181,SPACEBEE-131,PAYLOAD,U,22033AA,2023/2/5 4:02,402592,15.31746144,0.0007335,97.3624,119.481,278.9281,81.113,0,999,4715,0.00097312,0.00029857,0,3773638,0 SPACEBEE-131,1 52181U 22033AA  23036.16850003  .00029857  00000-0  97312-3 0  9990,2 52181  97.3624 119.4810 0007335 278.9281  81.1130 15.31746144 47156,2022-033AA,52181,6848.739,94.01,475.628,465.581,1,2023/3/9
GENERATED VIA SPACETRACK.ORG API,18 SPCS,52181,SPACEBEE-131,PAYLOAD,U,22033AA,2023/2/5 4:02,402592,15.31746144,0.0007335,97.3624,119.481,278.9281,81.113,0,999,4717,0.00097312,0.00029857,0,3773728,0 SPACEBEE-131,1 52181U 22033AA  23036.16850003  .00029857  00000-0  97312-3 0  9990,2 52181  97.3624 119.4810 0007335 278.9281  81.1130 15.31746144 47178,2022-033AA,52181,6848.739,94.01,475.628,465.581,1,2023/3/10
